start=new Date('2022-02-27T00:00:00.000Z').valueOf();
sats=[{"REF_FRAME":"TEME","MEAN_MOTION_DDOT":"0.0000000000000","CENTER_NAME":"EARTH","CLASSIFICATION_TYPE":"U","COUNTRY_CODE":"US","MEAN_MOTION":"15.73204421","EPOCH":"2022-02-26T22:00:00.999936","TLE_LINE2":"2 51131  53.2172  82.0776 0003309  15.3513  91.8018 15.73204421  7436","TLE_LINE1":"1 51131U 22005AD  22057.91667824 -.00000458  00000-0  11785-5 0  9994","EPHEMERIS_TYPE":"0","LAUNCH_DATE":"2022-01-19","ARG_OF_PERICENTER":"15.3513","MEAN_ELEMENT_THEORY":"SGP4","REV_AT_EPOCH":"743","RCS_SIZE":"LARGE","GP_ID":"197122684","TIME_SYSTEM":"UTC","FILE":"3326711","OBJECT_ID":"2022-005AD","APOAPSIS":"351.974","ECCENTRICITY":"0.00033090","NORAD_CAT_ID":"51131","SITE":"AFETR","SEMIMAJOR_AXIS":"6727.883","MEAN_MOTION_DOT":"-0.00000458","ELEMENT_SET_NO":"999","OBJECT_NAME":"STARLINK-3388","OBJECT_TYPE":"PAYLOAD","RA_OF_ASC_NODE":"82.0776","DECAY_DATE":null,"INCLINATION":"53.2172","PERIOD":"91.533","MEAN_ANOMALY":"91.8018","PERIAPSIS":"347.521","BSTAR":"0.00000117850000"},{"OBJECT_NAME":"STARLINK-3393","SEMIMAJOR_AXIS":"6727.883","MEAN_MOTION_DOT":"-0.00000468","ELEMENT_SET_NO":"999","SITE":"AFETR","RA_OF_ASC_NODE":"82.0790","OBJECT_TYPE":"PAYLOAD","DECAY_DATE":null,"INCLINATION":"53.2172","PERIOD":"91.533","PERIAPSIS":"347.410","MEAN_ANOMALY":"89.6940","BSTAR":"0.00000111080000","GP_ID":"197122182","TIME_SYSTEM":"UTC","APOAPSIS":"352.085","OBJECT_ID":"2022-005AE","FILE":"3326711","NORAD_CAT_ID":"51132","ECCENTRICITY":"0.00034750","TLE_LINE1":"1 51132U 22005AE  22057.91667824 -.00000468  00000-0  11108-5 0  9995","EPHEMERIS_TYPE":"0","ARG_OF_PERICENTER":"16.8289","LAUNCH_DATE":"2022-01-19","MEAN_ELEMENT_THEORY":"SGP4","RCS_SIZE":"LARGE","REV_AT_EPOCH":"743","CENTER_NAME":"EARTH","MEAN_MOTION_DDOT":"0.0000000000000","CLASSIFICATION_TYPE":"U","REF_FRAME":"TEME","COUNTRY_CODE":"US","MEAN_MOTION":"15.73204427","TLE_LINE2":"2 51132  53.2172  82.0790 0003475  16.8289  89.6940 15.73204427  7438","EPOCH":"2022-02-26T22:00:00.999936"},{"TLE_LINE2":"2 51133  53.2172  82.0737 0003436   8.7608 100.2829 15.73204690  7430","EPOCH":"2022-02-26T22:00:00.999936","CENTER_NAME":"EARTH","MEAN_MOTION_DDOT":"0.0000000000000","CLASSIFICATION_TYPE":"U","REF_FRAME":"TEME","COUNTRY_CODE":"US","MEAN_MOTION":"15.73204690","ARG_OF_PERICENTER":"8.7608","LAUNCH_DATE":"2022-01-19","MEAN_ELEMENT_THEORY":"SGP4","RCS_SIZE":"LARGE","REV_AT_EPOCH":"743","TLE_LINE1":"1 51133U 22005AF  22057.91667824 -.00000889  00000-0 -18882-5 0  9990","EPHEMERIS_TYPE":"0","APOAPSIS":"352.059","OBJECT_ID":"2022-005AF","FILE":"3326711","ECCENTRICITY":"0.00034360","NORAD_CAT_ID":"51133","GP_ID":"197122186","TIME_SYSTEM":"UTC","PERIOD":"91.533","INCLINATION":"53.2172","PERIAPSIS":"347.435","MEAN_ANOMALY":"100.2829","BSTAR":"-0.00000188820000","ELEMENT_SET_NO":"999","SEMIMAJOR_AXIS":"6727.882","MEAN_MOTION_DOT":"-0.00000889","OBJECT_NAME":"STARLINK-3356","SITE":"AFETR","RA_OF_ASC_NODE":"82.0737","OBJECT_TYPE":"PAYLOAD","DECAY_DATE":null},{"GP_ID":"197122696","TIME_SYSTEM":"UTC","ECCENTRICITY":"0.00035270","NORAD_CAT_ID":"51134","APOAPSIS":"352.209","FILE":"3326712","OBJECT_ID":"2022-005AG","RA_OF_ASC_NODE":"81.3764","OBJECT_TYPE":"PAYLOAD","DECAY_DATE":null,"ELEMENT_SET_NO":"999","SEMIMAJOR_AXIS":"6727.971","MEAN_MOTION_DOT":"0.00116142","OBJECT_NAME":"STARLINK-3183","SITE":"AFETR","BSTAR":"0.00082130000000","INCLINATION":"53.2138","PERIOD":"91.535","PERIAPSIS":"347.463","MEAN_ANOMALY":"69.9956","MEAN_MOTION":"15.73173401","CENTER_NAME":"EARTH","MEAN_MOTION_DDOT":"0.0000000000000","CLASSIFICATION_TYPE":"U","REF_FRAME":"TEME","COUNTRY_CODE":"US","TLE_LINE2":"2 51134  53.2138  81.3764 0003527  19.0166  69.9956 15.73173401  7448","EPOCH":"2022-02-26T22:00:00.999936","EPHEMERIS_TYPE":"0","TLE_LINE1":"1 51134U 22005AG  22057.91667824  .00116142  00000-0  82130-3 0  9994","MEAN_ELEMENT_THEORY":"SGP4","RCS_SIZE":"LARGE","REV_AT_EPOCH":"744","ARG_OF_PERICENTER":"19.0166","LAUNCH_DATE":"2022-01-19"},{"EPHEMERIS_TYPE":"0","TLE_LINE1":"1 51135U 22005AH  22057.91667824 -.00000529  00000-0  67784-6 0  9998","RCS_SIZE":"LARGE","REV_AT_EPOCH":"743","MEAN_ELEMENT_THEORY":"SGP4","LAUNCH_DATE":"2022-01-19","ARG_OF_PERICENTER":"15.2953","MEAN_MOTION":"15.73204423","COUNTRY_CODE":"US","MEAN_MOTION_DDOT":"0.0000000000000","CLASSIFICATION_TYPE":"U","CENTER_NAME":"EARTH","REF_FRAME":"TEME","TLE_LINE2":"2 51135  53.2172  82.0724 0003412  15.2953  94.3788 15.73204423  7439","EPOCH":"2022-02-26T22:00:00.999936","DECAY_DATE":null,"RA_OF_ASC_NODE":"82.0724","OBJECT_TYPE":"PAYLOAD","MEAN_MOTION_DOT":"-0.00000529","SEMIMAJOR_AXIS":"6727.883","ELEMENT_SET_NO":"999","OBJECT_NAME":"STARLINK-3363","SITE":"AFETR","BSTAR":"0.00000067784000","PERIAPSIS":"347.452","MEAN_ANOMALY":"94.3788","INCLINATION":"53.2172","PERIOD":"91.533","TIME_SYSTEM":"UTC","GP_ID":"197122733","NORAD_CAT_ID":"51135","ECCENTRICITY":"0.00034120","APOAPSIS":"352.043","FILE":"3326720","OBJECT_ID":"2022-005AH"},{"MEAN_MOTION":"15.73204822","COUNTRY_CODE":"US","REF_FRAME":"TEME","MEAN_MOTION_DDOT":"0.0000000000000","CENTER_NAME":"EARTH","CLASSIFICATION_TYPE":"U","EPOCH":"2022-02-26T22:00:00.999936","TLE_LINE2":"2 51136  53.2172  79.8457 0001980  30.3364  93.4102 15.73204822  7476","EPHEMERIS_TYPE":"0","TLE_LINE1":"1 51136U 22005AJ  22057.91667824 -.00001248  00000-0 -44634-5 0  9997","REV_AT_EPOCH":"747","RCS_SIZE":"LARGE","MEAN_ELEMENT_THEORY":"SGP4","LAUNCH_DATE":"2022-01-19","ARG_OF_PERICENTER":"30.3364","TIME_SYSTEM":"UTC","GP_ID":"197123229","NORAD_CAT_ID":"51136","ECCENTRICITY":"0.00019800","OBJECT_ID":"2022-005AJ","FILE":"3326720","APOAPSIS":"351.079","DECAY_DATE":null,"OBJECT_TYPE":"PAYLOAD","RA_OF_ASC_NODE":"79.8457","SITE":"AFETR","OBJECT_NAME":"STARLINK-3253","SEMIMAJOR_AXIS":"6727.881","MEAN_MOTION_DOT":"-0.00001248","ELEMENT_SET_NO":"999","BSTAR":"-0.00000446340000","MEAN_ANOMALY":"93.4102","PERIAPSIS":"348.414","INCLINATION":"53.2172","PERIOD":"91.533"},{"TIME_SYSTEM":"UTC","GP_ID":"197122726","NORAD_CAT_ID":"51137","ECCENTRICITY":"0.00031920","FILE":"3326720","OBJECT_ID":"2022-005AK","APOAPSIS":"351.858","DECAY_DATE":null,"OBJECT_TYPE":"PAYLOAD","RA_OF_ASC_NODE":"82.0867","SITE":"AFETR","OBJECT_NAME":"STARLINK-3180","SEMIMAJOR_AXIS":"6727.845","MEAN_MOTION_DOT":"-0.00019408","ELEMENT_SET_NO":"999","BSTAR":"-0.00013402000000","MEAN_ANOMALY":"103.3845","PERIAPSIS":"347.563","INCLINATION":"53.2140","PERIOD":"91.532","MEAN_MOTION":"15.73217461","COUNTRY_CODE":"US","REF_FRAME":"TEME","MEAN_MOTION_DDOT":"0.0000000000000","CLASSIFICATION_TYPE":"U","CENTER_NAME":"EARTH","EPOCH":"2022-02-26T22:00:00.999936","TLE_LINE2":"2 51137  53.2140  82.0867 0003192   9.0211 103.3845 15.73217461  7438","EPHEMERIS_TYPE":"0","TLE_LINE1":"1 51137U 22005AK  22057.91667824 -.00019408  00000-0 -13402-3 0  9992","REV_AT_EPOCH":"743","RCS_SIZE":"LARGE","MEAN_ELEMENT_THEORY":"SGP4","LAUNCH_DATE":"2022-01-19","ARG_OF_PERICENTER":"9.0211"},{"TLE_LINE1":"1 51138U 22005AL  22057.91667824  .00038453  00000-0  27707-3 0  9995","EPHEMERIS_TYPE":"0","LAUNCH_DATE":"2022-01-19","ARG_OF_PERICENTER":"12.0839","MEAN_ELEMENT_THEORY":"SGP4","REV_AT_EPOCH":"369","RCS_SIZE":"LARGE","REF_FRAME":"TEME","CLASSIFICATION_TYPE":"U","MEAN_MOTION_DDOT":"0.0000000000000","CENTER_NAME":"EARTH","COUNTRY_CODE":"US","MEAN_MOTION":"15.73201796","EPOCH":"2022-02-26T22:00:00.999936","TLE_LINE2":"2 51138  53.2162  82.0932 0003437  12.0839  98.4515 15.73201796  3694","SITE":"AFETR","MEAN_MOTION_DOT":"0.00038453","SEMIMAJOR_AXIS":"6727.890","ELEMENT_SET_NO":"999","OBJECT_NAME":"STARLINK-3177","OBJECT_TYPE":"PAYLOAD","RA_OF_ASC_NODE":"82.0932","DECAY_DATE":null,"PERIOD":"91.533","INCLINATION":"53.2162","MEAN_ANOMALY":"98.4515","PERIAPSIS":"347.443","BSTAR":"0.00027707000000","GP_ID":"197162635","TIME_SYSTEM":"UTC","OBJECT_ID":"2022-005AL","FILE":"3327391","APOAPSIS":"352.067","ECCENTRICITY":"0.00034370","NORAD_CAT_ID":"51138"},{"NORAD_CAT_ID":"51139","ECCENTRICITY":"0.00035540","APOAPSIS":"353.428","OBJECT_ID":"2022-005AM","FILE":"3326720","TIME_SYSTEM":"UTC","GP_ID":"197123224","BSTAR":"0.00443550000000","PERIAPSIS":"348.645","MEAN_ANOMALY":"102.7204","INCLINATION":"53.2168","PERIOD":"91.559","DECAY_DATE":null,"RA_OF_ASC_NODE":"82.0704","OBJECT_TYPE":"PAYLOAD","SEMIMAJOR_AXIS":"6729.171","MEAN_MOTION_DOT":"0.00660628","OBJECT_NAME":"STARLINK-3172","ELEMENT_SET_NO":"999","SITE":"AFETR","TLE_LINE2":"2 51139  53.2168  82.0704 0003554  11.0145 102.7204 15.72752512  7433","EPOCH":"2022-02-26T22:00:00.999936","MEAN_MOTION":"15.72752512","COUNTRY_CODE":"US","MEAN_MOTION_DDOT":"0.0000000000000","CLASSIFICATION_TYPE":"U","CENTER_NAME":"EARTH","REF_FRAME":"TEME","RCS_SIZE":"LARGE","REV_AT_EPOCH":"743","MEAN_ELEMENT_THEORY":"SGP4","LAUNCH_DATE":"2022-01-19","ARG_OF_PERICENTER":"11.0145","EPHEMERIS_TYPE":"0","TLE_LINE1":"1 51139U 22005AM  22057.91667824  .00660628  00000-0  44355-2 0  9998"},{"PERIOD":"91.563","INCLINATION":"53.2169","MEAN_ANOMALY":"103.9735","PERIAPSIS":"348.807","BSTAR":"0.00514320000000","SITE":"AFETR","ELEMENT_SET_NO":"999","SEMIMAJOR_AXIS":"6729.358","MEAN_MOTION_DOT":"0.00774629","OBJECT_NAME":"STARLINK-3175","OBJECT_TYPE":"PAYLOAD","RA_OF_ASC_NODE":"82.0738","DECAY_DATE":null,"FILE":"3326732","OBJECT_ID":"2022-005AN","APOAPSIS":"353.640","ECCENTRICITY":"0.00035910","NORAD_CAT_ID":"51140","GP_ID":"197122934","TIME_SYSTEM":"UTC","LAUNCH_DATE":"2022-01-19","ARG_OF_PERICENTER":"7.9071","MEAN_ELEMENT_THEORY":"SGP4","REV_AT_EPOCH":"743","RCS_SIZE":"LARGE","TLE_LINE1":"1 51140U 22005AN  22057.91667824  .00774629  00000-0  51432-2 0  9991","EPHEMERIS_TYPE":"0","EPOCH":"2022-02-26T22:00:00.999936","TLE_LINE2":"2 51140  53.2169  82.0738 0003591   7.9071 103.9735 15.72687028  7437","REF_FRAME":"TEME","MEAN_MOTION_DDOT":"0.0000000000000","CENTER_NAME":"EARTH","CLASSIFICATION_TYPE":"U","COUNTRY_CODE":"US","MEAN_MOTION":"15.72687028"}];
